[{"OBJECT_NAME":"TEVEL2-4","OBJECT_ID":"2025-052D","EPOCH":"2026-03-09T16:39:37.129536","MEAN_MOTION":15.30925813,"ECCENTRICITY":0.0004733,"INCLINATION":97.4009,"RA_OF_ASC_NODE":325.1237,"ARG_OF_PERICENTER":95.3468,"MEAN_ANOMALY":264.8313,"EPHEMERIS_TYPE":0,"CLASSIFICATION_TYPE":"U","NORAD_CAT_ID":63213,"ELEMENT_SET_NO":999,"REV_AT_EPOCH":5487,"BSTAR":0.00070362503,"MEAN_MOTION_DOT":0.0002099,"MEAN_MOTION_DDOT":0},{"OBJECT_NAME":"STARLINK-36515","OBJECT_ID":"2026-005AC","EPOCH":"2026-03-08T13:42:09.743040","MEAN_MOTION":15.2759908,"ECCENTRICITY":0.00016148,"INCLINATION":42.9999,"RA_OF_ASC_NODE":244.4472,"ARG_OF_PERICENTER":259.2943,"MEAN_ANOMALY":100.7727,"EPHEMERIS_TYPE":0,"CLASSIFICATION_TYPE":"U","NORAD_CAT_ID":67430,"ELEMENT_SET_NO":999,"REV_AT_EPOCH":851,"BSTAR":0.0014270247,"MEAN_MOTION_DOT":0.00039239,"MEAN_MOTION_DDOT":0}]
